NORAD_CAT_ID,OBJECT_NAME,OBJECT_TYPE,EPOCH,MEAN_MOTION,ECCENTRICITY,INCLINATION,RA_OF_ASC_NODE,ARG_OF_PERICENTER,MEAN_ANOMALY,BSTAR,MEAN_MOTION_DOT,MEAN_MOTION_DDOT,TLE_LINE0,TLE_LINE1,TLE_LINE2,SEMIMAJOR_AXIS,PERIOD,APOGEE,PERIGEE,DECAYED
50181.0,STARLINK-3285,PAYLOAD,2022-07-07 21:42:11,15.08853024,0.0003226,53.2179,148.1376,51.9797,308.1486,8.0096e-05,9.87e-06,0.0,0 STARLINK-3285,1 50181U 21125AB  22188.90429853  .00000987  00000-0  80096-4 0  9998,2 50181  53.2179 148.1376 0003226  51.9797 308.1486 15.08853024 34198,6917.840999999999,95.437,541.937,537.474,0.0
50181.0,STARLINK-3285,PAYLOAD,2022-07-08 07:14:29,15.08862087,0.0002874,53.2166,146.3528,60.9155,299.2124,-4.4462e-05,-9.97e-06,0.0,0 STARLINK-3285,1 50181U 21125AB  22189.30173079 -.00000997  00000-0 -44462-4 0  9999,2 50181  53.2166 146.3528 0002874  60.9155 299.2124 15.08862087 34254,6917.813,95.436,541.6659999999998,537.69,0.0
50181.0,STARLINK-3285,PAYLOAD,2022-07-08 19:57:35,15.08849036,0.0003275,53.2167,143.9741,52.9308,307.1983,0.00017507,2.499e-05,0.0,0 STARLINK-3285,1 50181U 21125AB  22189.83165903  .00002499  00000-0  17507-3 0  9990,2 50181  53.2167 143.9741 0003275  52.9308 307.1983 15.08849036 34332,6917.853,95.437,541.9830000000002,537.452,0.0
50181.0,STARLINK-3285,PAYLOAD,2022-07-09 03:54:30,15.08852565,0.0003224,53.2166,142.4874,53.8693,306.2597,0.00025402,3.758e-05,0.0,0 STARLINK-3285,1 50181U 21125AB  22190.16285562  .00003758  00000-0  25402-3 0  9994,2 50181  53.2166 142.4874 0003224  53.8693 306.2597 15.08852565 34380,6917.842,95.437,541.937,537.477,0.0
50181.0,STARLINK-3285,PAYLOAD,2022-07-09 16:37:36,15.08834285,0.0003317,53.2164,140.1093,53.9023,306.2276,-0.00022529,-3.872e-05,0.0,0 STARLINK-3285,1 50181U 21125AB  22190.69278051 -.00003872  00000-0 -22529-3 0  9993,2 50181  53.2164 140.1093 0003317  53.9023 306.2276 15.08834285 34469,6917.898,95.438,542.058,537.4680000000002,0.0
50181.0,STARLINK-3285,PAYLOAD,2022-07-10 03:45:19,15.08831123,0.000338,53.2173,138.0288,53.4171,306.7132,-8.962e-05,-1.715e-05,0.0,0 STARLINK-3285,1 50181U 21125AB  22191.15647360 -.00001715  00000-0 -89620-4 0  9998,2 50181  53.2173 138.0288 0003380  53.4171 306.7132 15.08831123 34048,6917.908,95.438,542.111,537.434,0.0
50181.0,STARLINK-3285,PAYLOAD,2022-07-10 19:39:10,15.08836182,0.0003177,53.2178,135.0541,55.61600000000001,304.5132,-3.0165e-06,-3.37e-06,0.0,0 STARLINK-3285,1 50181U 21125AB  22191.81887118 -.00000337  00000-0 -30165-5 0  9998,2 50181  53.2178 135.0541 0003177  55.6160 304.5132 15.08836182 34145,6917.892,95.438,541.955,537.559,0.0
50181.0,STARLINK-3285,PAYLOAD,2022-07-11 05:11:29,15.08840562,0.0003199,53.2178,133.27,56.0326,304.097,3.1026e-05,2.05e-06,0.0,0 STARLINK-3285,1 50181U 21125AB  22192.21630937  .00000205  00000-0  31026-4 0  9996,2 50181  53.2178 133.2700 0003199  56.0326 304.0970 15.08840562 34697,6917.879,95.438,541.957,537.531,0.0
50181.0,STARLINK-3285,PAYLOAD,2022-07-11 19:29:57,15.08840169,0.0003143,53.2179,130.594,56.6986,303.4306,0.00029591,4.424e-05,0.0,0 STARLINK-3285,1 50181U 21125AB  22192.81246734  .00004424  00000-0  29591-3 0  9990,2 50181  53.2179 130.5940 0003143  56.6986 303.4306 15.08840169 34780,6917.88,95.438,541.919,537.571,0.0
50181.0,STARLINK-3285,PAYLOAD,2022-07-12 05:02:16,15.08849359,0.0003122,53.217,128.8097,57.2723,302.857,0.00042703,6.516e-05,0.0,0 STARLINK-3285,1 50181U 21125AB  22193.20990850  .00006516  00000-0  42703-3 0  9993,2 50181  53.2170 128.8097 0003122  57.2723 302.8570 15.08849359 34356,6917.852,95.437,541.877,537.557,0.0
50181.0,STARLINK-3285,PAYLOAD,2022-07-12 12:59:11,15.08841971,0.0003178,53.2169,127.3227,56.6536,303.476,0.00014095,1.955e-05,0.0,0 STARLINK-3285,1 50181U 21125AB  22193.54110993  .00001955  00000-0  14095-3 0  9997,2 50181  53.2169 127.3227 0003178  56.6536 303.4760 15.08841971 34405,6917.874,95.437,541.938,537.5409999999998,0.0
50181.0,STARLINK-3285,PAYLOAD,2022-07-13 03:17:40,15.08835068,0.0003179,53.2176,124.6467,57.932,302.1981,-9.287e-06,-4.37e-06,0.0,0 STARLINK-3285,1 50181U 21125AB  22194.13727395 -.00000437  00000-0 -92870-5 0  9998,2 50181  53.2176 124.6467 0003179  57.9320 302.1981 15.08835068 34495,6917.895,95.438,541.96,537.561,0.0
50181.0,STARLINK-3285,PAYLOAD,2022-07-13 12:49:58,15.08845732,0.0003159,53.218,122.8625,58.7149,301.4152,0.00013806,1.91e-05,0.0,0 STARLINK-3285,1 50181U 21125AB  22194.53470985  .00001910  00000-0  13806-3 0  9997,2 50181  53.2180 122.8625 0003159  58.7149 301.4152 15.08845732 34550,6917.863,95.437,541.913,537.543,0.0
50181.0,STARLINK-3285,PAYLOAD,2022-07-14 06:19:14,15.08832207,0.0003234,53.2187,119.5917,56.7749,303.3552,-0.0001222,-2.233e-05,0.0,0 STARLINK-3285,1 50181U 21125AB  22195.26336207 -.00002233  00000-0 -12220-3 0  9996,2 50181  53.2187 119.5917 0003234  56.7749 303.3552 15.08832207 34662,6917.904,95.438,542.006,537.5319999999998,0.0
50181.0,STARLINK-3285,PAYLOAD,2022-07-15 04:34:38,15.08836664,0.0002864,53.2185,115.4284,60.1247,300.003,6.765800000000001e-05,7.88e-06,0.0,0 STARLINK-3285,1 50181U 21125AB  22196.19072012  .00000788  00000-0  67658-4 0  9997,2 50181  53.2185 115.4284 0002864  60.1247 300.0030 15.08836664 34804,6917.891,95.438,541.737,537.774,0.0
50181.0,STARLINK-3285,PAYLOAD,2022-07-16 10:46:57,15.08849405,0.0002823,53.2178,109.7797,59.0424,301.0845,0.00024558,3.623e-05,0.0,0 STARLINK-3285,1 50181U 21125AB  22197.44927312  .00003623  00000-0  24558-3 0  9990,2 50181  53.2178 109.7797 0002823  59.0424 301.0845 15.08849405 34992,6917.852,95.437,541.67,537.764,0.0
50181.0,STARLINK-3285,PAYLOAD,2022-07-17 10:37:44,15.08841933,0.0002828,53.2179,105.3194,61.0876,299.0399,-8.4044e-05,-1.626e-05,0.0,0 STARLINK-3285,1 50181U 21125AB  22198.44287175 -.00001626  00000-0 -84044-4 0  9997,2 50181  53.2179 105.3194 0002828  61.0876 299.0399 15.08841933 35141,6917.874,95.437,541.696,537.783,0.0
50181.0,STARLINK-3285,PAYLOAD,2022-07-17 20:10:02,15.08848227,0.0002681,53.2174,103.5355,61.8709,298.2554,-0.00011089,-2.053e-05,0.0,0 STARLINK-3285,1 50181U 21125AB  22198.84030815 -.00002053  00000-0 -11089-3 0  9991,2 50181  53.2174 103.5355 0002681  61.8709 298.2554 15.08848227 35692,6917.855,95.437,541.575,537.866,0.0
50181.0,STARLINK-3285,PAYLOAD,2022-07-18 10:28:31,15.08836561,0.0002591,53.2179,100.8585,60.235,299.8899,-4.781e-05,-1.049e-05,0.0,0 STARLINK-3285,1 50181U 21125AB  22199.43647448 -.00001049  00000-0 -47810-4 0  9999,2 50181  53.2179 100.8585 0002591  60.2350 299.8899 15.08836561 35784,6917.891,95.438,541.548,537.9630000000002,0.0
50181.0,STARLINK-3285,PAYLOAD,2022-07-18 21:36:14,15.08830618,0.0002481,53.2186,98.7766,63.8419,296.2828,-3.7298e-05,-8.82e-06,0.0,0 STARLINK-3285,1 50181U 21125AB  22199.90016524 -.00000882  00000-0 -37298-4 0  9999,2 50181  53.2186  98.7766 0002481  63.8419 296.2828 15.08830618 35365,6917.909000000002,95.438,541.49,538.058,0.0
50181.0,STARLINK-3285,PAYLOAD,2022-07-19 10:19:19,15.08836752,0.0002566999999999,53.219,96.398,61.1303,298.9947,8.2617e-07,-2.75e-06,0.0,0 STARLINK-3285,1 50181U 21125AB  22200.43008285 -.00000275  00000-0  82617-6 0  9997,2 50181  53.2190  96.3980 0002567  61.1303 298.9947 15.08836752 35445,6917.89,95.438,541.531,537.979,0.0
50181.0,STARLINK-3285,PAYLOAD,2022-07-19 21:27:00,15.08845364,0.0002483,53.2191,94.3166,61.1031,299.021,0.00013734,1.898e-05,0.0,0 STARLINK-3285,1 50181U 21125AB  22200.89375437  .00001898  00000-0  13734-3 0  9995,2 50181  53.2191  94.3166 0002483  61.1031 299.0210 15.08845364 36002,6917.864000000001,95.437,541.447,538.011,0.0
50181.0,STARLINK-3285,PAYLOAD,2022-07-20 03:48:32,15.08852434,0.000242,53.2188,93.1266,63.5826,296.5414,0.00025823,3.825e-05,0.0,0 STARLINK-3285,1 50181U 21125AB  22201.15870709  .00003825  00000-0  25823-3 0  9991,2 50181  53.2188  93.1266 0002420  63.5826 296.5414 15.08852434 35558,6917.842,95.437,541.382,538.033,0.0
50181.0,STARLINK-3285,PAYLOAD,2022-07-20 10:10:04,15.0885734,0.0002519,53.219,91.9379,61.9479,298.1768,0.00032549,4.898e-05,0.0,0 STARLINK-3285,1 50181U 21125AB  22201.42366252  .00004898  00000-0  32549-3 0  9998,2 50181  53.2190  91.9379 0002519  61.9479 298.1768 15.08857340 36087,6917.8269999999975,95.436,541.435,537.95,0.0
50181.0,STARLINK-3285,PAYLOAD,2022-07-21 02:03:57,15.08839385,0.0002434,53.2183,88.9651,64.2558,295.8685,0.00010939,1.453e-05,0.0,0 STARLINK-3285,1 50181U 21125AB  22202.08607724  .00001453  00000-0  10939-3 0  9996,2 50181  53.2183  88.9651 0002434  64.2558 295.8685 15.08839385 35695,6917.882,95.438,541.431,538.063,0.0
50181.0,STARLINK-3285,PAYLOAD,2022-07-21 10:00:53,15.08829072,0.0002437,53.2181,87.477,62.0626,298.0612,-8.2106e-05,-1.595e-05,0.0,0 STARLINK-3285,1 50181U 21125AB  22202.41728394 -.00001595  00000-0 -82106-4 0  9995,2 50181  53.2181  87.4770 0002437  62.0626 298.0612 15.08829072 35747,6917.9140000000025,95.438,541.465,538.0930000000002,0.0
50181.0,STARLINK-3285,PAYLOAD,2022-07-22 01:54:45,15.08828834,0.000229,53.2182,84.5039,63.5812,296.5415,-0.00018397,-3.214e-05,0.0,0 STARLINK-3285,1 50181U 21125AB  22203.07968871 -.00003214  00000-0 -18397-3 0  9994,2 50181  53.2182  84.5039 0002290  63.5812 296.5415 15.08828834 36339,6917.915,95.438,541.364,538.195,0.0
50181.0,STARLINK-3285,PAYLOAD,2022-07-22 17:48:36,15.08834885,0.0002149,53.2183,81.5304,64.9919,295.1297,0.00012232,1.659e-05,0.0,0 STARLINK-3285,1 50181U 21125AB  22203.74209016  .00001659  00000-0  12232-3 0  9998,2 50181  53.2183  81.5304 0002149  64.9919 295.1297 15.08834885 36435,6917.896,95.438,541.248,538.274,0.0
50181.0,STARLINK-3285,PAYLOAD,2022-07-23 01:45:32,15.08841587,0.0002225,53.2182,80.0438,60.5872,299.5342,0.00044905,6.866e-05,0.0,0 STARLINK-3285,1 50181U 21125AB  22204.07329236  .00006866  00000-0  44905-3 0  9999,2 50181  53.2182  80.0438 0002225  60.5872 299.5342 15.08841587 36482,6917.876,95.437,541.28,538.201,0.0
